ONEWEB-0395             
1 50475U 21132G   25365.16154871 -.00000311  00000+0 -91384-3 0  9998
2 50475  87.8830  54.5313 0001662 107.7533 252.3776 13.11414960193699
ONEWEB-0396             
1 50476U 21132H   25365.02479943  .00000028  00000+0  39394-4 0  9991
2 50476  87.9172   8.8432 0001834  92.1630 267.9712 13.18687163199478
ONEWEB-0397             
1 50477U 21132J   25365.03962991  .00000115  00000+0  25986-3 0  9991
2 50477  87.9172   8.8408 0001999  90.1491 269.9871 13.18684424199450
ONEWEB-0398             
1 50478U 21132K   25365.20565111  .00000621  00000+0  17160-2 0  9990
2 50478  87.8843  54.4973 0001430 109.6256 250.5027 13.11417980193596
ONEWEB-0399             
1 50479U 21132L   25365.19207691  .00000180  00000+0  47113-3 0  9997
2 50479  87.8840  54.5129 0002264 106.4916 253.6460 13.11418089193587
ONEWEB-0400             
1 50480U 21132M   25365.01818740  .00000066  00000+0  13493-3 0  9990
2 50480  87.9172   8.8347 0001574  93.0299 267.1013 13.18687754199449
ONEWEB-0401             
1 50481U 21132N   25365.06274582  .00000032  00000+0  48457-4 0  9998
2 50481  87.9173   8.8224 0001889  85.4301 274.7047 13.18686209199459
ONEWEB-0402             
1 50482U 21132P   25365.02642466  .00000786  00000+0  19610-2 0  9998
2 50482  87.9166   8.8224 0002514  78.5892 281.5522 13.18707805199478
